{
  "norad_id": 48355,
  "name": "STARLINK-2635",
  "history": [
    {
      "epoch": "2026-03-28T18:39:00.794592Z",
      "apogee_km": 475.9117468492195,
      "perigee_km": 474.43074693706694,
      "latitude_deg": 5.602391261455883e-05,
      "longitude_deg": 163.52825771478442,
      "height_km": 475.83878258936465,
      "semi_major_axis_km": 6853.308246893143,
      "eccentricity": 0.00010805,
      "inclination_deg": 53.159,
      "raan_deg": 269.4742,
      "arg_perigee_deg": 71.8424,
      "mean_anomaly_deg": 288.2695,
      "mean_motion_rev_day": 15.30214677
    }
  ]
}